[{"OBJECT_NAME":"QIANFAN-35","OBJECT_ID":"2024-185S","EPOCH":"2026-03-09T22:26:33.581760","MEAN_MOTION":14.28128705,"ECCENTRICITY":0.00069627,"INCLINATION":88.9749,"RA_OF_ASC_NODE":66.6226,"ARG_OF_PERICENTER":20.1226,"MEAN_ANOMALY":340.0242,"EPHEMERIS_TYPE":0,"CLASSIFICATION_TYPE":"U","NORAD_CAT_ID":61568,"ELEMENT_SET_NO":999,"REV_AT_EPOCH":8262,"BSTAR":0.00043408229,"MEAN_MOTION_DOT":1.093e-5,"MEAN_MOTION_DDOT":0},{"OBJECT_NAME":"SL-16 DEB","OBJECT_ID":"1992-093BP","EPOCH":"2026-03-09T20:31:25.407552","MEAN_MOTION":13.9043915,"ECCENTRICITY":0.01752597,"INCLINATION":70.7903,"RA_OF_ASC_NODE":345.7288,"ARG_OF_PERICENTER":278.3957,"MEAN_ANOMALY":141.1376,"EPHEMERIS_TYPE":0,"CLASSIFICATION_TYPE":"U","NORAD_CAT_ID":22374,"ELEMENT_SET_NO":999,"REV_AT_EPOCH":67291,"BSTAR":0.00071737351,"MEAN_MOTION_DOT":9.62e-6,"MEAN_MOTION_DDOT":0}]
